start=new Date('2021-09-29T00:00:00.000Z').valueOf();
sats=[{"SITE":"AFETR","FILE":"3132920","BSTAR":"0.00009598100000","TIME_SYSTEM":"UTC","OBJECT_TYPE":"PAYLOAD","OBJECT_ID":"2021-017B","ELEMENT_SET_NO":"999","MEAN_MOTION":"15.73230484","COUNTRY_CODE":"US","PERIOD":"91.531","MEAN_MOTION_DOT":"0.00012891","REV_AT_EPOCH":"3342","CLASSIFICATION_TYPE":"U","EPOCH":"2021-09-28T14:49:54.092352","LAUNCH_DATE":"2021-03-04","ECCENTRICITY":"0.00039070","APOAPSIS":"352.302","CENTER_NAME":"EARTH","GP_ID":"185723548","RCS_SIZE":"LARGE","PERIAPSIS":"347.045","NORAD_CAT_ID":"47723","INCLINATION":"53.0412","DECAY_DATE":null,"TLE_LINE1":"1 47723U 21017B   21271.61798718  .00012891  00000-0  95981-4 0  9991","TLE_LINE2":"2 47723  53.0412 229.0729 0003907 334.6122  25.4703 15.73230484 33421","MEAN_ELEMENT_THEORY":"SGP4","MEAN_ANOMALY":"25.4703","SEMIMAJOR_AXIS":"6727.808","MEAN_MOTION_DDOT":"0.0000000000000","OBJECT_NAME":"STARLINK-2107","EPHEMERIS_TYPE":"0","ARG_OF_PERICENTER":"334.6122","REF_FRAME":"TEME","RA_OF_ASC_NODE":"229.0729"},{"ARG_OF_PERICENTER":"350.4871","RA_OF_ASC_NODE":"229.0756","REF_FRAME":"TEME","OBJECT_NAME":"STARLINK-2116","MEAN_MOTION_DDOT":"0.0000000000000","SEMIMAJOR_AXIS":"6727.826","EPHEMERIS_TYPE":"0","MEAN_ANOMALY":"9.6073","TLE_LINE1":"1 47724U 21017C   21271.61786907  .00014058  00000-0  10428-3 0  9998","DECAY_DATE":null,"MEAN_ELEMENT_THEORY":"SGP4","TLE_LINE2":"2 47724  53.0409 229.0756 0003872 350.4871   9.6073 15.73224221 33422","INCLINATION":"53.0409","NORAD_CAT_ID":"47724","PERIAPSIS":"347.086","CENTER_NAME":"EARTH","RCS_SIZE":"LARGE","GP_ID":"185723048","APOAPSIS":"352.296","LAUNCH_DATE":"2021-03-04","EPOCH":"2021-09-28T14:49:43.887648","CLASSIFICATION_TYPE":"U","ECCENTRICITY":"0.00038720","REV_AT_EPOCH":"3342","MEAN_MOTION_DOT":"0.00014058","PERIOD":"91.532","OBJECT_ID":"2021-017C","ELEMENT_SET_NO":"999","COUNTRY_CODE":"US","MEAN_MOTION":"15.73224221","OBJECT_TYPE":"PAYLOAD","SITE":"AFETR","TIME_SYSTEM":"UTC","BSTAR":"0.00010428000000","FILE":"3132920"},{"SEMIMAJOR_AXIS":"6925.358","OBJECT_NAME":"STARLINK-2125","MEAN_MOTION_DDOT":"0.0000000000000","EPHEMERIS_TYPE":"0","MEAN_ANOMALY":"274.0539","ARG_OF_PERICENTER":"86.0587","REF_FRAME":"TEME","RA_OF_ASC_NODE":"287.1885","NORAD_CAT_ID":"47725","PERIAPSIS":"546.393","DECAY_DATE":null,"TLE_LINE1":"1 47725U 21017D   21271.76791021  .00001557  00000-0  12343-3 0  9996","TLE_LINE2":"2 47725  53.0558 287.1885 0001199  86.0587 274.0539 15.06396926 32626","MEAN_ELEMENT_THEORY":"SGP4","INCLINATION":"53.0558","EPOCH":"2021-09-28T18:25:47.442144","CLASSIFICATION_TYPE":"U","LAUNCH_DATE":"2021-03-04","ECCENTRICITY":"0.00011990","PERIOD":"95.592","MEAN_MOTION_DOT":"0.00001557","REV_AT_EPOCH":"3262","CENTER_NAME":"EARTH","GP_ID":"185723687","RCS_SIZE":"LARGE","APOAPSIS":"548.053","OBJECT_TYPE":"PAYLOAD","SITE":"AFETR","BSTAR":"0.00012343000000","FILE":"3132928","TIME_SYSTEM":"UTC","OBJECT_ID":"2021-017D","ELEMENT_SET_NO":"999","COUNTRY_CODE":"US","MEAN_MOTION":"15.06396926"},{"PERIAPSIS":"546.507","NORAD_CAT_ID":"47726","INCLINATION":"53.0554","DECAY_DATE":null,"TLE_LINE1":"1 47726U 21017E   21271.75315708  .00002215  00000-0  16754-3 0  9992","TLE_LINE2":"2 47726  53.0554 287.2527 0000990  80.0798 280.0303 15.06406839 32624","MEAN_ELEMENT_THEORY":"SGP4","MEAN_ANOMALY":"280.0303","SEMIMAJOR_AXIS":"6925.328","OBJECT_NAME":"STARLINK-2126","MEAN_MOTION_DDOT":"0.0000000000000","EPHEMERIS_TYPE":"0","ARG_OF_PERICENTER":"80.0798","REF_FRAME":"TEME","RA_OF_ASC_NODE":"287.2527","SITE":"AFETR","BSTAR":"0.00016754000000","FILE":"3133171","TIME_SYSTEM":"UTC","OBJECT_TYPE":"PAYLOAD","ELEMENT_SET_NO":"999","OBJECT_ID":"2021-017E","COUNTRY_CODE":"US","MEAN_MOTION":"15.06406839","PERIOD":"95.592","MEAN_MOTION_DOT":"0.00002215","REV_AT_EPOCH":"3262","EPOCH":"2021-09-28T18:04:32.771712","CLASSIFICATION_TYPE":"U","LAUNCH_DATE":"2021-03-04","ECCENTRICITY":"0.00009900","APOAPSIS":"547.878","CENTER_NAME":"EARTH","GP_ID":"185729079","RCS_SIZE":"MEDIUM"},{"MEAN_ELEMENT_THEORY":"SGP4","TLE_LINE2":"2 47727  53.0411 230.3769 0002127  81.5776 278.5480 15.65592249 34042","TLE_LINE1":"1 47727U 21017F   21271.37325378 -.00645250  00000-0 -68019-2 0  9999","DECAY_DATE":null,"INCLINATION":"53.0411","NORAD_CAT_ID":"47727","PERIAPSIS":"370.102","REF_FRAME":"TEME","RA_OF_ASC_NODE":"230.3769","ARG_OF_PERICENTER":"81.5776","EPHEMERIS_TYPE":"0","MEAN_MOTION_DDOT":"0.0000000000000","OBJECT_NAME":"STARLINK-2129","SEMIMAJOR_AXIS":"6749.673","MEAN_ANOMALY":"278.5480","MEAN_MOTION":"15.65592249","COUNTRY_CODE":"US","OBJECT_ID":"2021-017F","ELEMENT_SET_NO":"999","OBJECT_TYPE":"PAYLOAD","TIME_SYSTEM":"UTC","FILE":"3132662","BSTAR":"-0.00680190000000","SITE":"AFETR","RCS_SIZE":"LARGE","GP_ID":"185717059","CENTER_NAME":"EARTH","APOAPSIS":"372.974","ECCENTRICITY":"0.00021270","LAUNCH_DATE":"2021-03-04","CLASSIFICATION_TYPE":"U","EPOCH":"2021-09-28T08:57:29.126592","REV_AT_EPOCH":"3404","PERIOD":"91.978","MEAN_MOTION_DOT":"-0.00645250"},{"RA_OF_ASC_NODE":"288.2687","REF_FRAME":"TEME","ARG_OF_PERICENTER":"69.5227","EPHEMERIS_TYPE":"0","SEMIMAJOR_AXIS":"6925.337","MEAN_MOTION_DDOT":"0.0000000000000","OBJECT_NAME":"STARLINK-2131","MEAN_ANOMALY":"290.5838","TLE_LINE2":"2 47728  53.0565 288.2687 0000705  69.5227 290.5838 15.06403871 33273","MEAN_ELEMENT_THEORY":"SGP4","DECAY_DATE":null,"TLE_LINE1":"1 47728U 21017G   21271.52831988  .00001130  00000-0  94702-4 0  9997","INCLINATION":"53.0565","NORAD_CAT_ID":"47728","PERIAPSIS":"546.713","GP_ID":"185716811","RCS_SIZE":"LARGE","CENTER_NAME":"EARTH","APOAPSIS":"547.690","ECCENTRICITY":"0.00007050","EPOCH":"2021-09-28T12:40:46.837632","CLASSIFICATION_TYPE":"U","LAUNCH_DATE":"2021-03-04","PERIOD":"95.592","MEAN_MOTION_DOT":"0.00001130","REV_AT_EPOCH":"3327","MEAN_MOTION":"15.06403871","COUNTRY_CODE":"US","ELEMENT_SET_NO":"999","OBJECT_ID":"2021-017G","OBJECT_TYPE":"PAYLOAD","FILE":"3132662","BSTAR":"0.00009470200000","TIME_SYSTEM":"UTC","SITE":"AFETR"},{"OBJECT_TYPE":"PAYLOAD","BSTAR":"-0.01370300000000","FILE":"3132932","TIME_SYSTEM":"UTC","SITE":"AFETR","MEAN_MOTION":"15.27348280","COUNTRY_CODE":"US","ELEMENT_SET_NO":"999","OBJECT_ID":"2021-017H","ECCENTRICITY":"0.00018460","EPOCH":"2021-09-28T12:47:33.373824","CLASSIFICATION_TYPE":"U","LAUNCH_DATE":"2021-03-04","PERIOD":"94.281","MEAN_MOTION_DOT":"-0.00354993","REV_AT_EPOCH":"3335","GP_ID":"185723246","RCS_SIZE":"LARGE","CENTER_NAME":"EARTH","APOAPSIS":"485.012","NORAD_CAT_ID":"47729","PERIAPSIS":"482.478","TLE_LINE2":"2 47729  53.0410 233.8294 0001846  13.2989 346.8057 15.27348280 33353","MEAN_ELEMENT_THEORY":"SGP4","DECAY_DATE":null,"TLE_LINE1":"1 47729U 21017H   21271.53302516 -.00354993  00000-0 -13703-1 0  9998","INCLINATION":"53.0410","EPHEMERIS_TYPE":"0","SEMIMAJOR_AXIS":"6861.880","MEAN_MOTION_DDOT":"0.0000000000000","OBJECT_NAME":"STARLINK-2132","MEAN_ANOMALY":"346.8057","RA_OF_ASC_NODE":"233.8294","REF_FRAME":"TEME","ARG_OF_PERICENTER":"13.2989"},{"OBJECT_TYPE":"PAYLOAD","FILE":"3132662","BSTAR":"0.00010546000000","TIME_SYSTEM":"UTC","SITE":"AFETR","COUNTRY_CODE":"US","MEAN_MOTION":"15.06397455","OBJECT_ID":"2021-017J","ELEMENT_SET_NO":"999","ECCENTRICITY":"0.00010100","EPOCH":"2021-09-28T13:11:56.140512","CLASSIFICATION_TYPE":"U","LAUNCH_DATE":"2021-03-04","MEAN_MOTION_DOT":"0.00001290","PERIOD":"95.592","REV_AT_EPOCH":"3301","GP_ID":"185715810","RCS_SIZE":"LARGE","CENTER_NAME":"EARTH","APOAPSIS":"547.921","NORAD_CAT_ID":"47730","PERIAPSIS":"546.522","TLE_LINE2":"2 47730  53.0567 303.1730 0001010  84.4683 275.6421 15.06397455 33010","MEAN_ELEMENT_THEORY":"SGP4","DECAY_DATE":null,"TLE_LINE1":"1 47730U 21017J   21271.54995533  .00001290  00000-0  10546-3 0  9999","INCLINATION":"53.0567","EPHEMERIS_TYPE":"0","SEMIMAJOR_AXIS":"6925.356","MEAN_MOTION_DDOT":"0.0000000000000","OBJECT_NAME":"STARLINK-2140","MEAN_ANOMALY":"275.6421","REF_FRAME":"TEME","RA_OF_ASC_NODE":"303.1730","ARG_OF_PERICENTER":"84.4683"},{"TLE_LINE2":"2 47731  53.0557 298.1413 0001113  92.2390 267.8727 15.06393461 33090","MEAN_ELEMENT_THEORY":"SGP4","DECAY_DATE":null,"TLE_LINE1":"1 47731U 21017K   21271.55689172 -.00000714  00000-0 -29079-4 0  9994","INCLINATION":"53.0557","NORAD_CAT_ID":"47731","PERIAPSIS":"546.463","RA_OF_ASC_NODE":"298.1413","REF_FRAME":"TEME","ARG_OF_PERICENTER":"92.2390","EPHEMERIS_TYPE":"0","SEMIMAJOR_AXIS":"6925.369","OBJECT_NAME":"STARLINK-2141","MEAN_MOTION_DDOT":"0.0000000000000","MEAN_ANOMALY":"267.8727","COUNTRY_CODE":"US","MEAN_MOTION":"15.06393461","ELEMENT_SET_NO":"999","OBJECT_ID":"2021-017K","OBJECT_TYPE":"PAYLOAD","BSTAR":"-0.00002907900000","FILE":"3132662","TIME_SYSTEM":"UTC","SITE":"AFETR","GP_ID":"185716559","RCS_SIZE":"LARGE","CENTER_NAME":"EARTH","APOAPSIS":"548.004","ECCENTRICITY":"0.00011130","EPOCH":"2021-09-28T13:21:55.444608","CLASSIFICATION_TYPE":"U","LAUNCH_DATE":"2021-03-04","PERIOD":"95.593","MEAN_MOTION_DOT":"-0.00000714","REV_AT_EPOCH":"3309"},{"RA_OF_ASC_NODE":"229.0667","REF_FRAME":"TEME","ARG_OF_PERICENTER":"346.1238","EPHEMERIS_TYPE":"0","SEMIMAJOR_AXIS":"6727.780","OBJECT_NAME":"STARLINK-2142","MEAN_MOTION_DDOT":"0.0000000000000","MEAN_ANOMALY":"13.9669","TLE_LINE2":"2 47732  53.0410 229.0667 0004016 346.1238  13.9669 15.73240522 33425","MEAN_ELEMENT_THEORY":"SGP4","DECAY_DATE":null,"TLE_LINE1":"1 47732U 21017L   21271.61753678  .00002885  00000-0  24950-4 0  9997","INCLINATION":"53.0410","NORAD_CAT_ID":"47732","PERIAPSIS":"346.943","GP_ID":"185723777","RCS_SIZE":"LARGE","CENTER_NAME":"EARTH","APOAPSIS":"352.347","ECCENTRICITY":"0.00040160","CLASSIFICATION_TYPE":"U","EPOCH":"2021-09-28T14:49:15.177792","LAUNCH_DATE":"2021-03-04","MEAN_MOTION_DOT":"0.00002885","PERIOD":"91.531","REV_AT_EPOCH":"3342","MEAN_MOTION":"15.73240522","COUNTRY_CODE":"US","OBJECT_ID":"2021-017L","ELEMENT_SET_NO":"999","OBJECT_TYPE":"PAYLOAD","BSTAR":"0.00002495000000","FILE":"3132941","TIME_SYSTEM":"UTC","SITE":"AFETR"}];
